[{"OBJECT_NAME":"STARLINK-3341","OBJECT_ID":"2022-001Q","EPOCH":"2026-03-09T12:21:40.533408","MEAN_MOTION":15.08835441,"ECCENTRICITY":0.00013722,"INCLINATION":53.2184,"RA_OF_ASC_NODE":169.9072,"ARG_OF_PERICENTER":102.0885,"MEAN_ANOMALY":258.0261,"EPHEMERIS_TYPE":0,"CLASSIFICATION_TYPE":"U","NORAD_CAT_ID":50817,"ELEMENT_SET_NO":999,"REV_AT_EPOCH":23038,"BSTAR":9.197913e-6,"MEAN_MOTION_DOT":-1.42e-6,"MEAN_MOTION_DDOT":0},{"OBJECT_NAME":"OBJECT H","OBJECT_ID":"2017-042H","EPOCH":"2026-03-09T21:54:40.929408","MEAN_MOTION":15.07257911,"ECCENTRICITY":0.00117342,"INCLINATION":97.4058,"RA_OF_ASC_NODE":233.05,"ARG_OF_PERICENTER":93.954,"MEAN_ANOMALY":266.303,"EPHEMERIS_TYPE":0,"CLASSIFICATION_TYPE":"U","NORAD_CAT_ID":42832,"ELEMENT_SET_NO":999,"REV_AT_EPOCH":47198,"BSTAR":0.00041037265,"MEAN_MOTION_DOT":6.138e-5,"MEAN_MOTION_DDOT":0}]
